[{"OBJECT_NAME":"STARLINK-5850","OBJECT_ID":"2023-088B","EPOCH":"2026-03-09T19:32:35.950272","MEAN_MOTION":15.02527791,"ECCENTRICITY":0.00013674,"INCLINATION":43.0034,"RA_OF_ASC_NODE":107.2133,"ARG_OF_PERICENTER":266.6473,"MEAN_ANOMALY":93.4213,"EPHEMERIS_TYPE":0,"CLASSIFICATION_TYPE":"U","NORAD_CAT_ID":57049,"ELEMENT_SET_NO":999,"REV_AT_EPOCH":15057,"BSTAR":-0.00010138277,"MEAN_MOTION_DOT":-1.573e-5,"MEAN_MOTION_DDOT":0},{"OBJECT_NAME":"ATLAS 5 CENTAUR R\/B","OBJECT_ID":"2015-058Q","EPOCH":"2026-03-09T09:58:43.980384","MEAN_MOTION":15.0421101,"ECCENTRICITY":0.01083886,"INCLINATION":64.7668,"RA_OF_ASC_NODE":96.662,"ARG_OF_PERICENTER":94.2862,"MEAN_ANOMALY":267.0651,"EPHEMERIS_TYPE":0,"CLASSIFICATION_TYPE":"U","NORAD_CAT_ID":40978,"ELEMENT_SET_NO":999,"REV_AT_EPOCH":10021,"BSTAR":0.00034608892,"MEAN_MOTION_DOT":5.305e-5,"MEAN_MOTION_DDOT":0}]
